{
  "type": "FeatureCollection",
  "features": [
    {
      "type": "Feature",
      "properties": {
        "norad_id": 40228,
        "name": "COSMOS 2251 DEB",
        "group": "cosmos-2251-debris",
        "lat": -33.911223865188425,
        "lon": 72.67335058585962,
        "alt_km": 759.7842599916667,
        "timestamp": "2025-12-22T23:36:21.115059+00:00",
        "meta_object_name": "COSMOS 2251 DEB",
        "meta_object_id": "1993-036BVH",
        "meta_epoch": "2025-12-21T23:22:10.240032",
        "meta_mean_motion": 14.41011159,
        "meta_eccentricity": 0.00242273,
        "meta_inclination": 74.0543,
        "meta_ra_of_asc_node": 243.4582,
        "meta_arg_of_pericenter": 303.6335,
        "meta_mean_anomaly": 75.4008,
        "meta_ephemeris_type": 0,
        "meta_classification_type": "U",
        "meta_norad_cat_id": 40228,
        "meta_element_set_no": 999,
        "meta_rev_at_epoch": 59054,
        "meta_bstar": 0.00025231886,
        "meta_mean_motion_dot": 7.87e-06,
        "meta_mean_motion_ddot": 0,
        "tle_line1": "1 40228U 93036BVH 25355.97372963  .00000787  00000+0  25232-3 0  9991",
        "tle_line2": "2 40228  74.0543 243.4582 0024227 303.6335  75.4008 14.41011159590543"
      },
      "geometry": {
        "type": "Point",
        "coordinates": [
          72.67335058585962,
          -33.911223865188425
        ]
      }
    },
    {
      "type": "Feature",
      "properties": {
        "norad_id": 40230,
        "name": "COSMOS 2251 DEB",
        "group": "cosmos-2251-debris",
        "lat": -32.788567112730725,
        "lon": -162.93643592745423,
        "alt_km": 727.0289307393041,
        "timestamp": "2025-12-22T23:36:21.115069+00:00",
        "meta_object_name": "COSMOS 2251 DEB",
        "meta_object_id": "1993-036BVK",
        "meta_epoch": "2025-12-20T07:41:52.070784",
        "meta_mean_motion": 14.49354869,
        "meta_eccentricity": 0.00189754,
        "meta_inclination": 74.0435,
        "meta_ra_of_asc_node": 212.675,
        "meta_arg_of_pericenter": 270.0639,
        "meta_mean_anomaly": 207.3635,
        "meta_ephemeris_type": 0,
        "meta_classification_type": "U",
        "meta_norad_cat_id": 40230,
        "meta_element_set_no": 999,
        "meta_rev_at_epoch": 59081,
        "meta_bstar": 0.00041501757,
        "meta_mean_motion_dot": 1.562e-05,
        "meta_mean_motion_ddot": 0,
        "tle_line1": "1 40230U 93036BVK 25354.32074156  .00001562  00000+0  41502-3 0  9995",
        "tle_line2": "2 40230  74.0435 212.6750 0018975 270.0639 207.3635 14.49354869590816"
      },
      "geometry": {
        "type": "Point",
        "coordinates": [
          -162.93643592745423,
          -32.788567112730725
        ]
      }
    },
    {
      "type": "Feature",
      "properties": {
        "norad_id": 40233,
        "name": "COSMOS 2251 DEB",
        "group": "cosmos-2251-debris",
        "lat": 51.42484288242058,
        "lon": -117.6731743987552,
        "alt_km": 665.4493728075995,
        "timestamp": "2025-12-22T23:36:21.115079+00:00",
        "meta_object_name": "COSMOS 2251 DEB",
        "meta_object_id": "1993-036BVN",
        "meta_epoch": "2025-12-16T00:45:52.214112",
        "meta_mean_motion": 14.58458772,
        "meta_eccentricity": 0.0044987,
        "meta_inclination": 73.9406,
        "meta_ra_of_asc_node": 96.8035,
        "meta_arg_of_pericenter": 171.0622,
        "meta_mean_anomaly": 189.1354,
        "meta_ephemeris_type": 0,
        "meta_classification_type": "U",
        "meta_norad_cat_id": 40233,
        "meta_element_set_no": 999,
        "meta_rev_at_epoch": 59185,
        "meta_bstar": 0.00091306486,
        "meta_mean_motion_dot": 4.268e-05,
        "meta_mean_motion_ddot": 0,
        "tle_line1": "1 40233U 93036BVN 25350.03185433  .00004268  00000+0  91306-3 0  9996",
        "tle_line2": "2 40233  73.9406  96.8035 0044987 171.0622 189.1354 14.58458772591855"
      },
      "geometry": {
        "type": "Point",
        "coordinates": [
          -117.6731743987552,
          51.42484288242058
        ]
      }
    },
    {
      "type": "Feature",
      "properties": {
        "norad_id": 40236,
        "name": "COSMOS 2251 DEB",
        "group": "cosmos-2251-debris",
        "lat": -69.33881249872024,
        "lon": 75.96539394076761,
        "alt_km": 1112.1671723921854,
        "timestamp": "2025-12-22T23:36:21.115089+00:00",
        "meta_object_name": "COSMOS 2251 DEB",
        "meta_object_id": "1993-036BVR",
        "meta_epoch": "2025-12-07T17:52:23.026080",
        "meta_mean_motion": 13.24639967,
        "meta_eccentricity": 0.05366128,
        "meta_inclination": 73.5349,
        "meta_ra_of_asc_node": 151.6266,
        "meta_arg_of_pericenter": 32.3576,
        "meta_mean_anomaly": 330.9258,
        "meta_ephemeris_type": 0,
        "meta_classification_type": "U",
        "meta_norad_cat_id": 40236,
        "meta_element_set_no": 999,
        "meta_rev_at_epoch": 53558,
        "meta_bstar": 0.0015786255,
        "meta_mean_motion_dot": 1.455e-05,
        "meta_mean_motion_ddot": 0,
        "tle_line1": "1 40236U 93036BVR 25341.74471095  .00001455  00000+0  15786-2 0  9991",
        "tle_line2": "2 40236  73.5349 151.6266 0536612  32.3576 330.9258 13.24639967535580"
      },
      "geometry": {
        "type": "Point",
        "coordinates": [
          75.96539394076761,
          -69.33881249872024
        ]
      }
    },
    {
      "type": "Feature",
      "properties": {
        "norad_id": 40238,
        "name": "COSMOS 2251 DEB",
        "group": "cosmos-2251-debris",
        "lat": 40.7881536803452,
        "lon": 62.21526672320299,
        "alt_km": 782.4555376852913,
        "timestamp": "2025-12-22T23:36:21.115099+00:00",
        "meta_object_name": "COSMOS 2251 DEB",
        "meta_object_id": "1993-036BVT",
        "meta_epoch": "2025-12-13T22:00:17.688960",
        "meta_mean_motion": 13.25118761,
        "meta_eccentricity": 0.05494159,
        "meta_inclination": 73.9889,
        "meta_ra_of_asc_node": 61.7905,
        "meta_arg_of_pericenter": 33.3831,
        "meta_mean_anomaly": 330.0665,
        "meta_ephemeris_type": 0,
        "meta_classification_type": "U",
        "meta_norad_cat_id": 40238,
        "meta_element_set_no": 999,
        "meta_rev_at_epoch": 54052,
        "meta_bstar": 0.0015955991,
        "meta_mean_motion_dot": 1.546e-05,
        "meta_mean_motion_ddot": 0,
        "tle_line1": "1 40238U 93036BVT 25347.91687140  .00001546  00000+0  15956-2 0  9998",
        "tle_line2": "2 40238  73.9889  61.7905 0549415  33.3831 330.0665 13.25118761540524"
      },
      "geometry": {
        "type": "Point",
        "coordinates": [
          62.21526672320299,
          40.7881536803452
        ]
      }
    },
    {
      "type": "Feature",
      "properties": {
        "norad_id": 40239,
        "name": "COSMOS 2251 DEB",
        "group": "cosmos-2251-debris",
        "lat": -30.403516400378212,
        "lon": 85.89114639636993,
        "alt_km": 745.9829934379813,
        "timestamp": "2025-12-22T23:36:21.115109+00:00",
        "meta_object_name": "COSMOS 2251 DEB",
        "meta_object_id": "1993-036BVU",
        "meta_epoch": "2025-12-20T12:20:48.690816",
        "meta_mean_motion": 14.62025821,
        "meta_eccentricity": 0.00852453,
        "meta_inclination": 74.0316,
        "meta_ra_of_asc_node": 260.9453,
        "meta_arg_of_pericenter": 10.3713,
        "meta_mean_anomaly": 171.3204,
        "meta_ephemeris_type": 0,
        "meta_classification_type": "U",
        "meta_norad_cat_id": 40239,
        "meta_element_set_no": 999,
        "meta_rev_at_epoch": 59724,
        "meta_bstar": 0.00026861912,
        "meta_mean_motion_dot": 1.387e-05,
        "meta_mean_motion_ddot": 0,
        "tle_line1": "1 40239U 93036BVU 25354.51445244  .00001387  00000+0  26862-3 0  9992",
        "tle_line2": "2 40239  74.0316 260.9453 0085245  10.3713 171.3204 14.62025821597245"
      },
      "geometry": {
        "type": "Point",
        "coordinates": [
          85.89114639636993,
          -30.403516400378212
        ]
      }
    },
    {
      "type": "Feature",
      "properties": {
        "norad_id": 40792,
        "name": "COSMOS 2251 DEB",
        "group": "cosmos-2251-debris",
        "lat": -40.68779998716507,
        "lon": -138.07689708741466,
        "alt_km": 675.2983160583872,
        "timestamp": "2025-12-22T23:36:21.115120+00:00",
        "meta_object_name": "COSMOS 2251 DEB",
        "meta_object_id": "1993-036BVV",
        "meta_epoch": "2025-12-21T09:02:29.575680",
        "meta_mean_motion": 14.67648102,
        "meta_eccentricity": 0.00147404,
        "meta_inclination": 74.0452,
        "meta_ra_of_asc_node": 30.785,
        "meta_arg_of_pericenter": 133.0098,
        "meta_mean_anomaly": 243.0806,
        "meta_ephemeris_type": 0,
        "meta_classification_type": "U",
        "meta_norad_cat_id": 40792,
        "meta_element_set_no": 999,
        "meta_rev_at_epoch": 63311,
        "meta_bstar": 0.00064575886,
        "meta_mean_motion_dot": 3.648e-05,
        "meta_mean_motion_ddot": 0,
        "tle_line1": "1 40792U 93036BVV 25355.37673120  .00003648  00000+0  64576-3 0  9993",
        "tle_line2": "2 40792  74.0452  30.7850 0014740 133.0098 243.0806 14.67648102633115"
      },
      "geometry": {
        "type": "Point",
        "coordinates": [
          -138.07689708741466,
          -40.68779998716507
        ]
      }
    }
  ]
}